STARLINK-1539
1 16072C 20055AX  21326.14236576  .00000512  00000-0  34336-4 0  3264
2 16072  53.0542 298.0897 0001788  57.2061 242.7577 15.06390353    18
